{
  "type": "FeatureCollection",
  "features": [
    {
      "type": "Feature",
      "properties": {
        "norad_id": 66492,
        "name": "STARLINK-35673",
        "group": "last-30-days",
        "lat": 42.31377024357311,
        "lon": -121.74105689777676,
        "alt_km": 432.7655946622817,
        "timestamp": "2025-12-10T21:43:20.861562+00:00",
        "meta_object_name": "STARLINK-35673",
        "meta_object_id": "2025-263H",
        "meta_epoch": "2025-12-10T14:00:03.000384",
        "meta_mean_motion": 15.44143179,
        "meta_eccentricity": 0.00016371,
        "meta_inclination": 43.0007,
        "meta_ra_of_asc_node": 137.7877,
        "meta_arg_of_pericenter": 277.2656,
        "meta_mean_anomaly": 192.0308,
        "meta_ephemeris_type": 0,
        "meta_classification_type": "U",
        "meta_norad_cat_id": 66492,
        "meta_element_set_no": 999,
        "meta_rev_at_epoch": 528,
        "meta_bstar": -0.049215236,
        "meta_mean_motion_dot": -0.0205129,
        "meta_mean_motion_ddot": 0,
        "tle_line1": "1 66492U 25263H   25344.58336806 -.02051290  00000+0 -49215-1 0  9994",
        "tle_line2": "2 66492  43.0007 137.7877 0001637 277.2656 192.0308 15.44143179  5282"
      },
      "geometry": {
        "type": "Point",
        "coordinates": [
          -121.74105689777676,
          42.31377024357311
        ]
      }
    },
    {
      "type": "Feature",
      "properties": {
        "norad_id": 66493,
        "name": "STARLINK-35597",
        "group": "last-30-days",
        "lat": 33.524653529723196,
        "lon": -89.45261388364754,
        "alt_km": 410.5513854196224,
        "timestamp": "2025-12-10T21:43:20.861573+00:00",
        "meta_object_name": "STARLINK-35597",
        "meta_object_id": "2025-263J",
        "meta_epoch": "2025-12-10T14:00:03.000384",
        "meta_mean_motion": 15.50628588,
        "meta_eccentricity": 0.00014523,
        "meta_inclination": 43.0006,
        "meta_ra_of_asc_node": 137.7414,
        "meta_arg_of_pericenter": 263.6027,
        "meta_mean_anomaly": 224.1421,
        "meta_ephemeris_type": 0,
        "meta_classification_type": "U",
        "meta_norad_cat_id": 66493,
        "meta_element_set_no": 999,
        "meta_rev_at_epoch": 528,
        "meta_bstar": -0.0021999466,
        "meta_mean_motion_dot": -0.00127547,
        "meta_mean_motion_ddot": 0,
        "tle_line1": "1 66493U 25263J   25344.58336806 -.00127547  00000+0 -21999-2 0  9992",
        "tle_line2": "2 66493  43.0006 137.7414 0001452 263.6027 224.1421 15.50628588  5287"
      },
      "geometry": {
        "type": "Point",
        "coordinates": [
          -89.45261388364754,
          33.524653529723196
        ]
      }
    },
    {
      "type": "Feature",
      "properties": {
        "norad_id": 66494,
        "name": "STARLINK-35689",
        "group": "last-30-days",
        "lat": 36.12954970522873,
        "lon": -95.69647266868147,
        "alt_km": 410.2070893435912,
        "timestamp": "2025-12-10T21:43:20.861583+00:00",
        "meta_object_name": "STARLINK-35689",
        "meta_object_id": "2025-263K",
        "meta_epoch": "2025-12-10T14:00:03.000384",
        "meta_mean_motion": 15.50626348,
        "meta_eccentricity": 0.00015005,
        "meta_inclination": 43.0006,
        "meta_ra_of_asc_node": 137.7566,
        "meta_arg_of_pericenter": 262.4955,
        "meta_mean_anomaly": 219.4974,
        "meta_ephemeris_type": 0,
        "meta_classification_type": "U",
        "meta_norad_cat_id": 66494,
        "meta_element_set_no": 999,
        "meta_rev_at_epoch": 528,
        "meta_bstar": -0.0021133652,
        "meta_mean_motion_dot": -0.00122608,
        "meta_mean_motion_ddot": 0,
        "tle_line1": "1 66494U 25263K   25344.58336806 -.00122608  00000+0 -21134-2 0  9997",
        "tle_line2": "2 66494  43.0006 137.7566 0001500 262.4955 219.4974 15.50626348  5289"
      },
      "geometry": {
        "type": "Point",
        "coordinates": [
          -95.69647266868147,
          36.12954970522873
        ]
      }
    },
    {
      "type": "Feature",
      "properties": {
        "norad_id": 66495,
        "name": "STARLINK-35832",
        "group": "last-30-days",
        "lat": 32.587404426537795,
        "lon": -87.45601751532347,
        "alt_km": 410.69106830640794,
        "timestamp": "2025-12-10T21:43:20.861597+00:00",
        "meta_object_name": "STARLINK-35832",
        "meta_object_id": "2025-263L",
        "meta_epoch": "2025-12-10T14:00:03.000384",
        "meta_mean_motion": 15.50634494,
        "meta_eccentricity": 0.00014921,
        "meta_inclination": 43.0006,
        "meta_ra_of_asc_node": 137.7369,
        "meta_arg_of_pericenter": 262.6568,
        "meta_mean_anomaly": 227.0048,
        "meta_ephemeris_type": 0,
        "meta_classification_type": "U",
        "meta_norad_cat_id": 66495,
        "meta_element_set_no": 999,
        "meta_rev_at_epoch": 528,
        "meta_bstar": -0.0023684978,
        "meta_mean_motion_dot": -0.00137155,
        "meta_mean_motion_ddot": 0,
        "tle_line1": "1 66495U 25263L   25344.58336806 -.00137155  00000+0 -23685-2 0  9994",
        "tle_line2": "2 66495  43.0006 137.7369 0001492 262.6568 227.0048 15.50634494  5281"
      },
      "geometry": {
        "type": "Point",
        "coordinates": [
          -87.45601751532347,
          32.587404426537795
        ]
      }
    },
    {
      "type": "Feature",
      "properties": {
        "norad_id": 66496,
        "name": "STARLINK-35909",
        "group": "last-30-days",
        "lat": 31.62158051457846,
        "lon": -85.50679319410143,
        "alt_km": 410.8578405791095,
        "timestamp": "2025-12-10T21:43:20.861608+00:00",
        "meta_object_name": "STARLINK-35909",
        "meta_object_id": "2025-263M",
        "meta_epoch": "2025-12-10T14:00:03.000384",
        "meta_mean_motion": 15.50625871,
        "meta_eccentricity": 0.00015038,
        "meta_inclination": 43.0007,
        "meta_ra_of_asc_node": 137.7318,
        "meta_arg_of_pericenter": 264.9562,
        "meta_mean_anomaly": 226.625,
        "meta_ephemeris_type": 0,
        "meta_classification_type": "U",
        "meta_norad_cat_id": 66496,
        "meta_element_set_no": 999,
        "meta_rev_at_epoch": 528,
        "meta_bstar": -0.0021521096,
        "meta_mean_motion_dot": -0.00124813,
        "meta_mean_motion_ddot": 0,
        "tle_line1": "1 66496U 25263M   25344.58336806 -.00124813  00000+0 -21521-2 0  9999",
        "tle_line2": "2 66496  43.0007 137.7318 0001503 264.9562 226.6250 15.50625871  5288"
      },
      "geometry": {
        "type": "Point",
        "coordinates": [
          -85.50679319410143,
          31.62158051457846
        ]
      }
    },
    {
      "type": "Feature",
      "properties": {
        "norad_id": 66497,
        "name": "STARLINK-35899",
        "group": "last-30-days",
        "lat": 30.627456704067825,
        "lon": -83.59968046797346,
        "alt_km": 411.0816666922383,
        "timestamp": "2025-12-10T21:43:20.861618+00:00",
        "meta_object_name": "STARLINK-35899",
        "meta_object_id": "2025-263N",
        "meta_epoch": "2025-12-10T14:00:03.000384",
        "meta_mean_motion": 15.50621422,
        "meta_eccentricity": 0.00015372,
        "meta_inclination": 43.0007,
        "meta_ra_of_asc_node": 137.7271,
        "meta_arg_of_pericenter": 270.6326,
        "meta_mean_anomaly": 222.8634,
        "meta_ephemeris_type": 0,
        "meta_classification_type": "U",
        "meta_norad_cat_id": 66497,
        "meta_element_set_no": 999,
        "meta_rev_at_epoch": 528,
        "meta_bstar": -0.0020428607,
        "meta_mean_motion_dot": -0.00118569,
        "meta_mean_motion_ddot": 0,
        "tle_line1": "1 66497U 25263N   25344.58336806 -.00118569  00000+0 -20429-2 0  9997",
        "tle_line2": "2 66497  43.0007 137.7271 0001537 270.6326 222.8634 15.50621422  5288"
      },
      "geometry": {
        "type": "Point",
        "coordinates": [
          -83.59968046797346,
          30.627456704067825
        ]
      }
    },
    {
      "type": "Feature",
      "properties": {
        "norad_id": 66498,
        "name": "STARLINK-35907",
        "group": "last-30-days",
        "lat": 39.55511711489346,
        "lon": -106.52281634662533,
        "alt_km": 431.8631813020438,
        "timestamp": "2025-12-10T21:43:20.861628+00:00",
        "meta_object_name": "STARLINK-35907",
        "meta_object_id": "2025-263P",
        "meta_epoch": "2025-12-10T14:00:03.000384",
        "meta_mean_motion": 15.44516145,
        "meta_eccentricity": 0.00012569,
        "meta_inclination": 43.0003,
        "meta_ra_of_asc_node": 137.758,
        "meta_arg_of_pericenter": 276.6586,
        "meta_mean_anomaly": 204.0308,
        "meta_ephemeris_type": 0,
        "meta_classification_type": "U",
        "meta_norad_cat_id": 66498,
        "meta_element_set_no": 999,
        "meta_rev_at_epoch": 528,
        "meta_bstar": -0.049211336,
        "meta_mean_motion_dot": -0.02074408,
        "meta_mean_motion_ddot": 0,
        "tle_line1": "1 66498U 25263P   25344.58336806 -.02074408  00000+0 -49211-1 0  9992",
        "tle_line2": "2 66498  43.0003 137.7580 0001256 276.6586 204.0308 15.44516145  5288"
      },
      "geometry": {
        "type": "Point",
        "coordinates": [
          -106.52281634662533,
          39.55511711489346
        ]
      }
    }
  ]
}